start=new Date('2021-08-29T00:00:00.000Z').valueOf();
sats=[{"RCS_SIZE":"LARGE","PERIOD":"95.592","FILE":"3104555","ELEMENT_SET_NO":"999","MEAN_MOTION_DOT":"0.00001231","MEAN_ANOMALY":"245.9969","TLE_LINE2":"2 45401  53.0558   1.2292 0001455 114.1172 245.9969 15.06408034 80676","LAUNCH_DATE":"2020-03-18","ARG_OF_PERICENTER":"114.1172","NORAD_CAT_ID":"45401","BSTAR":"0.00010150000000","ECCENTRICITY":"0.00014550","MEAN_MOTION_DDOT":"0.0000000000000","EPOCH":"2021-08-28T19:10:41.876256","MEAN_MOTION":"15.06408034","DECAY_DATE":null,"TIME_SYSTEM":"UTC","APOAPSIS":"548.197","EPHEMERIS_TYPE":"0","REV_AT_EPOCH":"8067","OBJECT_NAME":"STARLINK-1256","CENTER_NAME":"EARTH","CLASSIFICATION_TYPE":"U","GP_ID":"183637385","RA_OF_ASC_NODE":"1.2292","SEMIMAJOR_AXIS":"6925.324","COUNTRY_CODE":"US","OBJECT_ID":"2020-019AT","MEAN_ELEMENT_THEORY":"SGP4","REF_FRAME":"TEME","OBJECT_TYPE":"PAYLOAD","TLE_LINE1":"1 45401U 20019AT  21240.79909579  .00001231  00000-0  10150-3 0  9997","SITE":"AFETR","PERIAPSIS":"546.181","INCLINATION":"53.0558"},{"NORAD_CAT_ID":"45402","ARG_OF_PERICENTER":"114.9305","LAUNCH_DATE":"2020-03-18","DECAY_DATE":null,"APOAPSIS":"548.117","TIME_SYSTEM":"UTC","EPHEMERIS_TYPE":"0","EPOCH":"2021-08-28T20:40:55.644960","MEAN_MOTION":"15.06414093","MEAN_MOTION_DDOT":"0.0000000000000","ECCENTRICITY":"0.00013670","BSTAR":"0.00006476300000","MEAN_MOTION_DOT":"0.00000684","ELEMENT_SET_NO":"999","FILE":"3104555","PERIOD":"95.591","RCS_SIZE":"LARGE","TLE_LINE2":"2 45402  53.0557   0.9423 0001367 114.9305 245.1826 15.06414093 80694","MEAN_ANOMALY":"245.1826","REF_FRAME":"TEME","MEAN_ELEMENT_THEORY":"SGP4","OBJECT_ID":"2020-019AU","INCLINATION":"53.0557","TLE_LINE1":"1 45402U 20019AU  21240.86175515  .00000684  00000-0  64763-4 0  9992","SITE":"AFETR","PERIAPSIS":"546.224","OBJECT_TYPE":"PAYLOAD","CLASSIFICATION_TYPE":"U","GP_ID":"183635638","REV_AT_EPOCH":"8069","CENTER_NAME":"EARTH","OBJECT_NAME":"STARLINK-1257","COUNTRY_CODE":"US","SEMIMAJOR_AXIS":"6925.305","RA_OF_ASC_NODE":"0.9423"},{"CENTER_NAME":"EARTH","REV_AT_EPOCH":"8067","OBJECT_NAME":"STARLINK-1259","GP_ID":"183636388","CLASSIFICATION_TYPE":"U","RA_OF_ASC_NODE":"1.1795","COUNTRY_CODE":"US","SEMIMAJOR_AXIS":"6925.331","MEAN_ELEMENT_THEORY":"SGP4","OBJECT_ID":"2020-019AV","REF_FRAME":"TEME","OBJECT_TYPE":"PAYLOAD","INCLINATION":"53.0564","PERIAPSIS":"546.296","SITE":"AFETR","TLE_LINE1":"1 45403U 20019AV  21240.81016009  .00000660  00000-0  63207-4 0  9996","FILE":"3104555","PERIOD":"95.592","RCS_SIZE":"LARGE","MEAN_MOTION_DOT":"0.00000660","ELEMENT_SET_NO":"999","MEAN_ANOMALY":"242.3370","TLE_LINE2":"2 45403  53.0564   1.1795 0001300 117.7751 242.3370 15.06405752 80674","ARG_OF_PERICENTER":"117.7751","LAUNCH_DATE":"2020-03-18","NORAD_CAT_ID":"45403","MEAN_MOTION_DDOT":"0.0000000000000","ECCENTRICITY":"0.00013000","BSTAR":"0.00006320700000","EPHEMERIS_TYPE":"0","APOAPSIS":"548.096","TIME_SYSTEM":"UTC","DECAY_DATE":null,"MEAN_MOTION":"15.06405752","EPOCH":"2021-08-28T19:26:37.831776"},{"ELEMENT_SET_NO":"999","MEAN_MOTION_DOT":"0.00002157","PERIOD":"95.592","RCS_SIZE":"LARGE","FILE":"3104555","TLE_LINE2":"2 45404  53.0571   1.4307 0001260 112.7798 247.3325 15.06405450 80575","MEAN_ANOMALY":"247.3325","NORAD_CAT_ID":"45404","LAUNCH_DATE":"2020-03-18","ARG_OF_PERICENTER":"112.7798","EPOCH":"2021-08-28T18:07:00.374016","MEAN_MOTION":"15.06405450","DECAY_DATE":null,"EPHEMERIS_TYPE":"0","APOAPSIS":"548.069","TIME_SYSTEM":"UTC","BSTAR":"0.00016360000000","MEAN_MOTION_DDOT":"0.0000000000000","ECCENTRICITY":"0.00012600","GP_ID":"183637136","CLASSIFICATION_TYPE":"U","REV_AT_EPOCH":"8057","OBJECT_NAME":"STARLINK-1260","CENTER_NAME":"EARTH","SEMIMAJOR_AXIS":"6925.332","COUNTRY_CODE":"US","RA_OF_ASC_NODE":"1.4307","REF_FRAME":"TEME","OBJECT_ID":"2020-019AW","MEAN_ELEMENT_THEORY":"SGP4","SITE":"AFETR","TLE_LINE1":"1 45404U 20019AW  21240.75486544  .00002157  00000-0  16360-3 0  9995","PERIAPSIS":"546.324","INCLINATION":"53.0571","OBJECT_TYPE":"PAYLOAD"},{"NORAD_CAT_ID":"45405","ARG_OF_PERICENTER":"120.1792","LAUNCH_DATE":"2020-03-18","DECAY_DATE":null,"TIME_SYSTEM":"UTC","APOAPSIS":"548.052","EPHEMERIS_TYPE":"0","EPOCH":"2021-08-28T19:21:19.020096","MEAN_MOTION":"15.06409783","MEAN_MOTION_DDOT":"0.0000000000000","ECCENTRICITY":"0.00012540","BSTAR":"0.00008931400000","MEAN_MOTION_DOT":"0.00001050","ELEMENT_SET_NO":"999","FILE":"3104555","RCS_SIZE":"LARGE","PERIOD":"95.592","TLE_LINE2":"2 45405  53.0567   1.1977 0001254 120.1792 239.9321 15.06409783 80588","MEAN_ANOMALY":"239.9321","REF_FRAME":"TEME","MEAN_ELEMENT_THEORY":"SGP4","OBJECT_ID":"2020-019AX","INCLINATION":"53.0567","SITE":"AFETR","TLE_LINE1":"1 45405U 20019AX  21240.80647014  .00001050  00000-0  89314-4 0  9994","PERIAPSIS":"546.315","OBJECT_TYPE":"PAYLOAD","GP_ID":"183636886","CLASSIFICATION_TYPE":"U","OBJECT_NAME":"STARLINK-1263","REV_AT_EPOCH":"8058","CENTER_NAME":"EARTH","COUNTRY_CODE":"US","SEMIMAJOR_AXIS":"6925.319","RA_OF_ASC_NODE":"1.1977"},{"MEAN_ANOMALY":"239.1593","TLE_LINE2":"2 45406  53.0555   1.4541 0001198 120.9514 239.1593 15.06413363 80574","FILE":"3104555","RCS_SIZE":"LARGE","PERIOD":"95.591","MEAN_MOTION_DOT":"0.00002384","ELEMENT_SET_NO":"999","ECCENTRICITY":"0.00011980","MEAN_MOTION_DDOT":"0.0000000000000","BSTAR":"0.00017883000000","DECAY_DATE":null,"TIME_SYSTEM":"UTC","APOAPSIS":"548.002","EPHEMERIS_TYPE":"0","EPOCH":"2021-08-28T17:56:23.360640","MEAN_MOTION":"15.06413363","ARG_OF_PERICENTER":"120.9514","LAUNCH_DATE":"2020-03-18","NORAD_CAT_ID":"45406","RA_OF_ASC_NODE":"1.4541","COUNTRY_CODE":"US","SEMIMAJOR_AXIS":"6925.308","OBJECT_NAME":"STARLINK-1265","REV_AT_EPOCH":"8057","CENTER_NAME":"EARTH","CLASSIFICATION_TYPE":"U","GP_ID":"183636138","OBJECT_TYPE":"PAYLOAD","INCLINATION":"53.0555","TLE_LINE1":"1 45406U 20019AY  21240.74749260  .00002384  00000-0  17883-3 0  9996","SITE":"AFETR","PERIAPSIS":"546.343","MEAN_ELEMENT_THEORY":"SGP4","OBJECT_ID":"2020-019AY","REF_FRAME":"TEME"},{"NORAD_CAT_ID":"45407","ARG_OF_PERICENTER":"129.1655","LAUNCH_DATE":"2020-03-18","DECAY_DATE":null,"TIME_SYSTEM":"UTC","APOAPSIS":"548.074","EPHEMERIS_TYPE":"0","EPOCH":"2021-08-28T15:06:33.600384","MEAN_MOTION":"15.06404098","MEAN_MOTION_DDOT":"0.0000000000000","ECCENTRICITY":"0.00012600","BSTAR":"0.00005043200000","MEAN_MOTION_DOT":"0.00000470","ELEMENT_SET_NO":"999","FILE":"3104555","PERIOD":"95.592","RCS_SIZE":"LARGE","TLE_LINE2":"2 45407  53.0567   1.9846 0001260 129.1655 230.9446 15.06404098 80557","MEAN_ANOMALY":"230.9446","REF_FRAME":"TEME","MEAN_ELEMENT_THEORY":"SGP4","OBJECT_ID":"2020-019AZ","INCLINATION":"53.0567","TLE_LINE1":"1 45407U 20019AZ  21240.62955556  .00000470  00000-0  50432-4 0  9993","SITE":"AFETR","PERIAPSIS":"546.328","OBJECT_TYPE":"PAYLOAD","CLASSIFICATION_TYPE":"U","GP_ID":"183635889","REV_AT_EPOCH":"8055","OBJECT_NAME":"STARLINK-1275","CENTER_NAME":"EARTH","SEMIMAJOR_AXIS":"6925.336","COUNTRY_CODE":"US","RA_OF_ASC_NODE":"1.9846"},{"REF_FRAME":"TEME","MEAN_ELEMENT_THEORY":"SGP4","OBJECT_ID":"2020-019BA","INCLINATION":"53.0567","PERIAPSIS":"546.002","SITE":"AFETR","TLE_LINE1":"1 45408U 20019BA  21240.70787614  .00002228  00000-0  16842-3 0  9990","OBJECT_TYPE":"PAYLOAD","GP_ID":"183636637","CLASSIFICATION_TYPE":"U","OBJECT_NAME":"STARLINK-1278","REV_AT_EPOCH":"8015","CENTER_NAME":"EARTH","COUNTRY_CODE":"US","SEMIMAJOR_AXIS":"6925.333","RA_OF_ASC_NODE":"31.6427","NORAD_CAT_ID":"45408","ARG_OF_PERICENTER":"106.8638","LAUNCH_DATE":"2020-03-18","APOAPSIS":"548.394","EPHEMERIS_TYPE":"0","TIME_SYSTEM":"UTC","DECAY_DATE":null,"MEAN_MOTION":"15.06404967","EPOCH":"2021-08-28T16:59:20.498496","ECCENTRICITY":"0.00017270","MEAN_MOTION_DDOT":"0.0000000000000","BSTAR":"0.00016842000000","MEAN_MOTION_DOT":"0.00002228","ELEMENT_SET_NO":"999","FILE":"3104555","PERIOD":"95.592","RCS_SIZE":"LARGE","TLE_LINE2":"2 45408  53.0567  31.6427 0001727 106.8638 253.2540 15.06404967 80158","MEAN_ANOMALY":"253.2540"},{"FILE":"3104555","RCS_SIZE":"LARGE","PERIOD":"95.592","MEAN_MOTION_DOT":"0.00000392","ELEMENT_SET_NO":"999","MEAN_ANOMALY":"242.4116","TLE_LINE2":"2 45409  53.0569   1.9555 0001255 117.7001 242.4116 15.06404114 80562","ARG_OF_PERICENTER":"117.7001","LAUNCH_DATE":"2020-03-18","NORAD_CAT_ID":"45409","MEAN_MOTION_DDOT":"0.0000000000000","ECCENTRICITY":"0.00012550","BSTAR":"0.00004518500000","EPHEMERIS_TYPE":"0","APOAPSIS":"548.070","TIME_SYSTEM":"UTC","DECAY_DATE":null,"MEAN_MOTION":"15.06404114","EPOCH":"2021-08-28T15:17:10.180896","REV_AT_EPOCH":"8056","OBJECT_NAME":"STARLINK-1282","CENTER_NAME":"EARTH","GP_ID":"183637386","CLASSIFICATION_TYPE":"U","RA_OF_ASC_NODE":"1.9555","SEMIMAJOR_AXIS":"6925.336","COUNTRY_CODE":"US","MEAN_ELEMENT_THEORY":"SGP4","OBJECT_ID":"2020-019BB","REF_FRAME":"TEME","OBJECT_TYPE":"PAYLOAD","INCLINATION":"53.0569","PERIAPSIS":"546.332","TLE_LINE1":"1 45409U 20019BB  21240.63692339  .00000392  00000-0  45185-4 0  9995","SITE":"AFETR"},{"REV_AT_EPOCH":"8092","OBJECT_NAME":"STARLINK-1285","CENTER_NAME":"EARTH","CLASSIFICATION_TYPE":"U","GP_ID":"183635639","RA_OF_ASC_NODE":"335.7164","COUNTRY_CODE":"US","SEMIMAJOR_AXIS":"6732.775","MEAN_ELEMENT_THEORY":"SGP4","OBJECT_ID":"2020-019BC","REF_FRAME":"TEME","OBJECT_TYPE":"PAYLOAD","INCLINATION":"53.0586","SITE":"AFETR","TLE_LINE1":"1 45410U 20019BC  21240.75326799  .00019120  00000-0  15077-3 0  9999","PERIAPSIS":"353.543","FILE":"3104555","RCS_SIZE":"LARGE","PERIOD":"91.633","MEAN_MOTION_DOT":"0.00019120","ELEMENT_SET_NO":"999","MEAN_ANOMALY":"313.9723","TLE_LINE2":"2 45410  53.0586 335.7164 0001629  46.1428 313.9723 15.71489916 80923","ARG_OF_PERICENTER":"46.1428","LAUNCH_DATE":"2020-03-18","NORAD_CAT_ID":"45410","MEAN_MOTION_DDOT":"0.0000000000000","ECCENTRICITY":"0.00016290","BSTAR":"0.00015077000000","DECAY_DATE":null,"APOAPSIS":"355.737","EPHEMERIS_TYPE":"0","TIME_SYSTEM":"UTC","EPOCH":"2021-08-28T18:04:42.354336","MEAN_MOTION":"15.71489916"}];
